STARLINK-34013          
1 63871U 25094H   26082.36150284  .00010236  00000+0  86442-3 0  9990
2 63871  70.0025 199.8847 0003729 274.5686  85.5047 14.98329299 49251
STARLINK-34059          
1 63872U 25094J   26082.33647358  .00266627  00000+0  21252-1 0  9994
2 63872  70.0017 200.1920 0005376 283.4121  76.6439 14.98802317 49246
STARLINK-33987          
1 63873U 25094K   26082.36984794  .00005113  00000+0  43595-3 0  9993
2 63873  70.0017 199.9116 0003677 268.5016  91.5722 14.98331764 49253
STARLINK-34052          
1 63874U 25094L   26082.33231114  .00009888  00000+0  83504-3 0  9999
2 63874  70.0023 200.1792 0003570 268.4196  91.6554 14.98341430 49240
STARLINK-34023          
1 63875U 25094M   26082.36567631  .00004769  00000+0  40722-3 0  9997
2 63875  70.0015 199.8935 0003276 272.4880  87.5904 14.98329620 49254
STARLINK-34061          
1 63876U 25094N   26082.34491315  .00170437  00000+0  13847-1 0  9993
2 63876  70.0013 200.2225 0007212 286.5741  73.4626 14.98598874 49241
STARLINK-33778          
1 63877U 25094P   26082.38670384  .00004935  00000+0  42110-3 0  9999
2 63877  70.0020 199.9638 0003869 269.5655  90.5061 14.98332266 49256
STARLINK-33901          
1 63878U 25094Q   26082.06948132  .00022302  00000+0  18672-2 0  9997
2 63878  70.0031 200.8671 0004390 250.1906 109.8780 14.98404037 49206
STARLINK-33812          
1 63879U 25094R   26082.37820398  .00012335  00000+0  10403-2 0  9994
2 63879  70.0019 199.9328 0003498 262.0584  98.0178 14.98307409 49252
STARLINK-33779          
1 63880U 25094S   26082.32814076  .00021187  00000+0  17775-2 0  9991
2 63880  70.0024 200.1686 0002415 275.8339  84.2545 14.98343226 49241
STARLINK-33905          
1 63881U 25094T   26082.35317502  .00284422  00000+0  22658-1 0  9995
2 63881  69.9969 199.8474 0003920 174.7652 185.3549 14.98725143 49253
STARLINK-34003          
1 63882U 25094U   26082.52033280  .00007840  00000+0  18218-3 0  9999
2 63882  70.0007 167.9632 0003107 277.3212  82.7616 15.42722178 50062
STARLINK-33968          
1 63883U 25094V   26082.34082472  .00006620  00000+0  56208-3 0  9993
2 63883  70.0018 200.2074 0003789 272.8666  87.2059 14.98329521 49249
STARLINK-33943          
1 63884U 25094W   26082.34897822  .00007642  00000+0  64738-3 0  9999
2 63884  70.0019 199.8379 0003639 268.9158  91.1584 14.98340257 49255
STARLINK-33858          
1 63885U 25094X   26082.57427837 -.00092091  00000+0 -78149-2 0  9994
2 63885  70.0019 199.4190 0002719 256.8734 103.2122 14.98316851 49286
STARLINK-33885          
1 63886U 25094Y   26082.35731250  .00008983  00000+0  75938-3 0  9997
2 63886  70.0021 199.8643 0002710 276.8636  83.2214 14.98343884 49253
STARLINK-33904          
1 63887U 25094Z   26082.33335647  .00009471  00000+0  80030-3 0  9998
2 63887  70.0015 199.9007 0003702 269.9819 342.4215 14.98336652  5775
