[{"OBJECT_NAME":"STARLINK-34013","OBJECT_ID":"2025-094H","EPOCH":"2026-03-23T08:40:33.845376","MEAN_MOTION":14.98329299,"ECCENTRICITY":0.0003729,"INCLINATION":70.0025,"RA_OF_ASC_NODE":199.8847,"ARG_OF_PERICENTER":274.5686,"MEAN_ANOMALY":85.5047,"EPHEMERIS_TYPE":0,"CLASSIFICATION_TYPE":"U","NORAD_CAT_ID":63871,"ELEMENT_SET_NO":999,"REV_AT_EPOCH":4925,"BSTAR":0.00086442,"MEAN_MOTION_DOT":0.00010236,"MEAN_MOTION_DDOT":0},{"OBJECT_NAME":"STARLINK-34059","OBJECT_ID":"2025-094J","EPOCH":"2026-03-23T08:04:31.317312","MEAN_MOTION":14.98802317,"ECCENTRICITY":0.0005376,"INCLINATION":70.0017,"RA_OF_ASC_NODE":200.192,"ARG_OF_PERICENTER":283.4121,"MEAN_ANOMALY":76.6439,"EPHEMERIS_TYPE":0,"CLASSIFICATION_TYPE":"U","NORAD_CAT_ID":63872,"ELEMENT_SET_NO":999,"REV_AT_EPOCH":4924,"BSTAR":0.021252,"MEAN_MOTION_DOT":0.00266627,"MEAN_MOTION_DDOT":0},{"OBJECT_NAME":"STARLINK-33987","OBJECT_ID":"2025-094K","EPOCH":"2026-03-23T08:52:34.862016","MEAN_MOTION":14.98331764,"ECCENTRICITY":0.0003677,"INCLINATION":70.0017,"RA_OF_ASC_NODE":199.9116,"ARG_OF_PERICENTER":268.5016,"MEAN_ANOMALY":91.5722,"EPHEMERIS_TYPE":0,"CLASSIFICATION_TYPE":"U","NORAD_CAT_ID":63873,"ELEMENT_SET_NO":999,"REV_AT_EPOCH":4925,"BSTAR":0.00043595,"MEAN_MOTION_DOT":5.113e-5,"MEAN_MOTION_DDOT":0},{"OBJECT_NAME":"STARLINK-34052","OBJECT_ID":"2025-094L","EPOCH":"2026-03-23T07:58:31.682496","MEAN_MOTION":14.9834143,"ECCENTRICITY":0.000357,"INCLINATION":70.0023,"RA_OF_ASC_NODE":200.1792,"ARG_OF_PERICENTER":268.4196,"MEAN_ANOMALY":91.6554,"EPHEMERIS_TYPE":0,"CLASSIFICATION_TYPE":"U","NORAD_CAT_ID":63874,"ELEMENT_SET_NO":999,"REV_AT_EPOCH":4924,"BSTAR":0.00083504,"MEAN_MOTION_DOT":9.888e-5,"MEAN_MOTION_DDOT":0},{"OBJECT_NAME":"STARLINK-34023","OBJECT_ID":"2025-094M","EPOCH":"2026-03-23T08:46:34.433184","MEAN_MOTION":14.9832962,"ECCENTRICITY":0.0003276,"INCLINATION":70.0015,"RA_OF_ASC_NODE":199.8935,"ARG_OF_PERICENTER":272.488,"MEAN_ANOMALY":87.5904,"EPHEMERIS_TYPE":0,"CLASSIFICATION_TYPE":"U","NORAD_CAT_ID":63875,"ELEMENT_SET_NO":999,"REV_AT_EPOCH":4925,"BSTAR":0.00040722,"MEAN_MOTION_DOT":4.769e-5,"MEAN_MOTION_DDOT":0},{"OBJECT_NAME":"STARLINK-34061","OBJECT_ID":"2025-094N","EPOCH":"2026-03-23T08:16:40.496160","MEAN_MOTION":14.98598874,"ECCENTRICITY":0.0007212,"INCLINATION":70.0013,"RA_OF_ASC_NODE":200.2225,"ARG_OF_PERICENTER":286.5741,"MEAN_ANOMALY":73.4626,"EPHEMERIS_TYPE":0,"CLASSIFICATION_TYPE":"U","NORAD_CAT_ID":63876,"ELEMENT_SET_NO":999,"REV_AT_EPOCH":4924,"BSTAR":0.013847,"MEAN_MOTION_DOT":0.00170437,"MEAN_MOTION_DDOT":0},{"OBJECT_NAME":"STARLINK-33778","OBJECT_ID":"2025-094P","EPOCH":"2026-03-23T09:16:51.211776","MEAN_MOTION":14.98332266,"ECCENTRICITY":0.0003869,"INCLINATION":70.002,"RA_OF_ASC_NODE":199.9638,"ARG_OF_PERICENTER":269.5655,"MEAN_ANOMALY":90.5061,"EPHEMERIS_TYPE":0,"CLASSIFICATION_TYPE":"U","NORAD_CAT_ID":63877,"ELEMENT_SET_NO":999,"REV_AT_EPOCH":4925,"BSTAR":0.0004211,"MEAN_MOTION_DOT":4.935e-5,"MEAN_MOTION_DDOT":0},{"OBJECT_NAME":"STARLINK-33901","OBJECT_ID":"2025-094Q","EPOCH":"2026-03-23T01:40:03.186048","MEAN_MOTION":14.98404037,"ECCENTRICITY":0.00043906,"INCLINATION":70.0031,"RA_OF_ASC_NODE":200.8671,"ARG_OF_PERICENTER":250.1906,"MEAN_ANOMALY":109.878,"EPHEMERIS_TYPE":0,"CLASSIFICATION_TYPE":"U","NORAD_CAT_ID":63878,"ELEMENT_SET_NO":999,"REV_AT_EPOCH":4920,"BSTAR":0.001867239,"MEAN_MOTION_DOT":0.00022302,"MEAN_MOTION_DDOT":0},{"OBJECT_NAME":"STARLINK-33812","OBJECT_ID":"2025-094R","EPOCH":"2026-03-23T09:04:36.823872","MEAN_MOTION":14.98307409,"ECCENTRICITY":0.0003498,"INCLINATION":70.0019,"RA_OF_ASC_NODE":199.9328,"ARG_OF_PERICENTER":262.0584,"MEAN_ANOMALY":98.0178,"EPHEMERIS_TYPE":0,"CLASSIFICATION_TYPE":"U","NORAD_CAT_ID":63879,"ELEMENT_SET_NO":999,"REV_AT_EPOCH":4925,"BSTAR":0.0010403,"MEAN_MOTION_DOT":0.00012335,"MEAN_MOTION_DDOT":0},{"OBJECT_NAME":"STARLINK-33779","OBJECT_ID":"2025-094S","EPOCH":"2026-03-23T07:52:31.361664","MEAN_MOTION":14.98343226,"ECCENTRICITY":0.0002415,"INCLINATION":70.0024,"RA_OF_ASC_NODE":200.1686,"ARG_OF_PERICENTER":275.8339,"MEAN_ANOMALY":84.2545,"EPHEMERIS_TYPE":0,"CLASSIFICATION_TYPE":"U","NORAD_CAT_ID":63880,"ELEMENT_SET_NO":999,"REV_AT_EPOCH":4924,"BSTAR":0.0017775,"MEAN_MOTION_DOT":0.00021187,"MEAN_MOTION_DDOT":0},{"OBJECT_NAME":"STARLINK-33905","OBJECT_ID":"2025-094T","EPOCH":"2026-03-23T08:28:34.321728","MEAN_MOTION":14.98725143,"ECCENTRICITY":0.000392,"INCLINATION":69.9969,"RA_OF_ASC_NODE":199.8474,"ARG_OF_PERICENTER":174.7652,"MEAN_ANOMALY":185.3549,"EPHEMERIS_TYPE":0,"CLASSIFICATION_TYPE":"U","NORAD_CAT_ID":63881,"ELEMENT_SET_NO":999,"REV_AT_EPOCH":4925,"BSTAR":0.022658,"MEAN_MOTION_DOT":0.00284422,"MEAN_MOTION_DDOT":0},{"OBJECT_NAME":"STARLINK-34003","OBJECT_ID":"2025-094U","EPOCH":"2026-03-23T12:29:16.753920","MEAN_MOTION":15.42722178,"ECCENTRICITY":0.0003107,"INCLINATION":70.0007,"RA_OF_ASC_NODE":167.9632,"ARG_OF_PERICENTER":277.3212,"MEAN_ANOMALY":82.7616,"EPHEMERIS_TYPE":0,"CLASSIFICATION_TYPE":"U","NORAD_CAT_ID":63882,"ELEMENT_SET_NO":999,"REV_AT_EPOCH":5006,"BSTAR":0.00018218,"MEAN_MOTION_DOT":7.84e-5,"MEAN_MOTION_DDOT":0},{"OBJECT_NAME":"STARLINK-33968","OBJECT_ID":"2025-094V","EPOCH":"2026-03-23T08:10:47.255808","MEAN_MOTION":14.98329521,"ECCENTRICITY":0.0003789,"INCLINATION":70.0018,"RA_OF_ASC_NODE":200.2074,"ARG_OF_PERICENTER":272.8666,"MEAN_ANOMALY":87.2059,"EPHEMERIS_TYPE":0,"CLASSIFICATION_TYPE":"U","NORAD_CAT_ID":63883,"ELEMENT_SET_NO":999,"REV_AT_EPOCH":4924,"BSTAR":0.00056208,"MEAN_MOTION_DOT":6.62e-5,"MEAN_MOTION_DDOT":0},{"OBJECT_NAME":"STARLINK-33943","OBJECT_ID":"2025-094W","EPOCH":"2026-03-23T08:22:31.718208","MEAN_MOTION":14.98340257,"ECCENTRICITY":0.0003639,"INCLINATION":70.0019,"RA_OF_ASC_NODE":199.8379,"ARG_OF_PERICENTER":268.9158,"MEAN_ANOMALY":91.1584,"EPHEMERIS_TYPE":0,"CLASSIFICATION_TYPE":"U","NORAD_CAT_ID":63884,"ELEMENT_SET_NO":999,"REV_AT_EPOCH":4925,"BSTAR":0.00064738,"MEAN_MOTION_DOT":7.642e-5,"MEAN_MOTION_DDOT":0},{"OBJECT_NAME":"STARLINK-33858","OBJECT_ID":"2025-094X","EPOCH":"2026-03-23T13:46:57.651168","MEAN_MOTION":14.98316851,"ECCENTRICITY":0.0002719,"INCLINATION":70.0019,"RA_OF_ASC_NODE":199.419,"ARG_OF_PERICENTER":256.8734,"MEAN_ANOMALY":103.2122,"EPHEMERIS_TYPE":0,"CLASSIFICATION_TYPE":"U","NORAD_CAT_ID":63885,"ELEMENT_SET_NO":999,"REV_AT_EPOCH":4928,"BSTAR":-0.0078149,"MEAN_MOTION_DOT":-0.00092091,"MEAN_MOTION_DDOT":0},{"OBJECT_NAME":"STARLINK-33885","OBJECT_ID":"2025-094Y","EPOCH":"2026-03-23T08:34:31.800000","MEAN_MOTION":14.98343884,"ECCENTRICITY":0.000271,"INCLINATION":70.0021,"RA_OF_ASC_NODE":199.8643,"ARG_OF_PERICENTER":276.8636,"MEAN_ANOMALY":83.2214,"EPHEMERIS_TYPE":0,"CLASSIFICATION_TYPE":"U","NORAD_CAT_ID":63886,"ELEMENT_SET_NO":999,"REV_AT_EPOCH":4925,"BSTAR":0.00075938,"MEAN_MOTION_DOT":8.983e-5,"MEAN_MOTION_DDOT":0},{"OBJECT_NAME":"STARLINK-33904","OBJECT_ID":"2025-094Z","EPOCH":"2026-03-23T08:00:01.999008","MEAN_MOTION":14.98336652,"ECCENTRICITY":0.0003702,"INCLINATION":70.0015,"RA_OF_ASC_NODE":199.9007,"ARG_OF_PERICENTER":269.9819,"MEAN_ANOMALY":342.4215,"EPHEMERIS_TYPE":0,"CLASSIFICATION_TYPE":"U","NORAD_CAT_ID":63887,"ELEMENT_SET_NO":999,"REV_AT_EPOCH":577,"BSTAR":0.0008003,"MEAN_MOTION_DOT":9.471e-5,"MEAN_MOTION_DDOT":0}]
